{"type": "FeatureCollection", "features": [ {"type": "Feature", "properties": {"norad_id": 42741, "name": "EUTELSAT 172B", "group": "eutelsat", "lat": 0.00162012428372634, "lon": 80.66777742211136, "alt_km": 35786.16396370485, "timestamp": "2025-12-25T11:37:44.093239+00:00", "meta": {"OBJECT_NAME": "EUTELSAT 172B", "OBJECT_ID": "2017-029B", "EPOCH": "2025-12-24T22:28:24.706848", "MEAN_MOTION": 1.00270189, "ECCENTRICITY": 1.3e-05, "INCLINATION": 0.0321, "RA_OF_ASC_NODE": 134.3587, "ARG_OF_PERICENTER": 357.8756, "MEAN_ANOMALY": 110.5732, "EPHEMERIS_TYPE": 0, "CLASSIFICATION_TYPE": "U", "NORAD_CAT_ID": 42741, "ELEMENT_SET_NO": 999, "REV_AT_EPOCH": 3198, "BSTAR": 0, "MEAN_MOTION_DOT": 1.5e-07, "MEAN_MOTION_DDOT": 0}, "tle": {"line1": "1 42741U 17029B   25358.93639707  .00000015  00000+0  00000+0 0  9998", "line2": "2 42741   0.0321 134.3587 0000130 357.8756 110.5732  1.00270189 31980"}}, "geometry": {"type": "Point", "coordinates": [80.66777742211136, 0.00162012428372634]}}, {"type": "Feature", "properties": {"norad_id": 44334, "name": "EUTELSAT 7C", "group": "eutelsat", "lat": 0.05038646261280553, "lon": -84.34630173680006, "alt_km": 35773.55734217353, "timestamp": "2025-12-25T11:37:44.093251+00:00", "meta": {"OBJECT_NAME": "EUTELSAT 7C", "OBJECT_ID": "2019-034B", "EPOCH": "2025-12-24T14:50:38.546016", "MEAN_MOTION": 1.00270796, "ECCENTRICITY": 0.00031593, "INCLINATION": 0.0726, "RA_OF_ASC_NODE": 177.7928, "ARG_OF_PERICENTER": 79.9691, "MEAN_ANOMALY": 65.2631, "EPHEMERIS_TYPE": 0, "CLASSIFICATION_TYPE": "U", "NORAD_CAT_ID": 44334, "ELEMENT_SET_NO": 999, "REV_AT_EPOCH": 508, "BSTAR": 0, "MEAN_MOTION_DOT": 6.9e-07, "MEAN_MOTION_DDOT": 0}, "tle": {"line1": "1 44334U 19034B   25358.61850169  .00000069  00000+0  00000+0 0  9997", "line2": "2 44334   0.0726 177.7928 0003159  79.9691  65.2631  1.00270796  5083"}}, "geometry": {"type": "Point", "coordinates": [-84.34630173680006, 0.05038646261280553]}}, {"type": "Feature", "properties": {"norad_id": 44624, "name": "EUTELSAT 5 WEST B", "group": "eutelsat", "lat": -0.0804820861396299, "lon": -96.33354675015899, "alt_km": 35773.09265798319, "timestamp": "2025-12-25T11:37:44.093263+00:00", "meta": {"OBJECT_NAME": "EUTELSAT 5 WEST B", "OBJECT_ID": "2019-067A", "EPOCH": "2025-12-24T22:38:38.755104", "MEAN_MOTION": 1.00271314, "ECCENTRICITY": 0.0003138, "INCLINATION": 0.0629, "RA_OF_ASC_NODE": 343.8225, "ARG_OF_PERICENTER": 288.8996, "MEAN_ANOMALY": 155.6522, "EPHEMERIS_TYPE": 0, "CLASSIFICATION_TYPE": "U", "NORAD_CAT_ID": 44624, "ELEMENT_SET_NO": 999, "REV_AT_EPOCH": 2269, "BSTAR": 0, "MEAN_MOTION_DOT": -2.1e-07, "MEAN_MOTION_DDOT": 0}, "tle": {"line1": "1 44624U 19067A   25358.94350411 -.00000021  00000+0  00000+0 0  9995", "line2": "2 44624   0.0629 343.8225 0003138 288.8996 155.6522  1.00271314 22695"}}, "geometry": {"type": "Point", "coordinates": [-96.33354675015899, -0.0804820861396299]}}, {"type": "Feature", "properties": {"norad_id": 45027, "name": "EUTELSAT KONNECT", "group": "eutelsat", "lat": -0.021075228295589984, "lon": -84.13389574110863, "alt_km": 35780.37744299521, "timestamp": "2025-12-25T11:37:44.093275+00:00", "meta": {"OBJECT_NAME": "EUTELSAT KONNECT", "OBJECT_ID": "2020-005B", "EPOCH": "2025-12-24T14:50:46.034304", "MEAN_MOTION": 1.00269906, "ECCENTRICITY": 0.00014622, "INCLINATION": 0.0704, "RA_OF_ASC_NODE": 94.2724, "ARG_OF_PERICENTER": 186.2921, "MEAN_ANOMALY": 42.7194, "EPHEMERIS_TYPE": 0, "CLASSIFICATION_TYPE": "U", "NORAD_CAT_ID": 45027, "ELEMENT_SET_NO": 999, "REV_AT_EPOCH": 2258, "BSTAR": 0, "MEAN_MOTION_DOT": 7e-07, "MEAN_MOTION_DDOT": 0}, "tle": {"line1": "1 45027U 20005B   25358.61858836  .00000070  00000+0  00000+0 0  9998", "line2": "2 45027   0.0704  94.2724 0001462 186.2921  42.7194  1.00269906 22588"}}, "geometry": {"type": "Point", "coordinates": [-84.13389574110863, -0.021075228295589984]}}, {"type": "Feature", "properties": {"norad_id": 49056, "name": "EUTELSAT QUANTUM", "group": "eutelsat", "lat": -0.027412591952807538, "lon": -43.60569381008609, "alt_km": 35774.09723857473, "timestamp": "2025-12-25T11:37:44.093287+00:00", "meta": {"OBJECT_NAME": "EUTELSAT QUANTUM", "OBJECT_ID": "2021-069B", "EPOCH": "2025-12-24T23:35:55.741056", "MEAN_MOTION": 1.00270986, "ECCENTRICITY": 0.000348, "INCLINATION": 0.0115, "RA_OF_ASC_NODE": 15.7317, "ARG_OF_PERICENTER": 266.2745, "MEAN_ANOMALY": 213.4278, "EPHEMERIS_TYPE": 0, "CLASSIFICATION_TYPE": "U", "NORAD_CAT_ID": 49056, "ELEMENT_SET_NO": 999, "REV_AT_EPOCH": 1618, "BSTAR": 0, "MEAN_MOTION_DOT": 1.47e-06, "MEAN_MOTION_DDOT": 0}, "tle": {"line1": "1 49056U 21069B   25358.98328404  .00000147  00000+0  00000+0 0  9993", "line2": "2 49056   0.0115  15.7317 0003480 266.2745 213.4278  1.00270986 16180"}}, "geometry": {"type": "Point", "coordinates": [-43.60569381008609, -0.027412591952807538]}}, {"type": "Feature", "properties": {"norad_id": 53765, "name": "EUTELSAT KONNECT VHTS", "group": "eutelsat", "lat": -0.011849927377030368, "lon": -88.60752735958222, "alt_km": 35777.53461324929, "timestamp": "2025-12-25T11:37:44.093299+00:00", "meta": {"OBJECT_NAME": "EUTELSAT KONNECT VHTS", "OBJECT_ID": "2022-110A", "EPOCH": "2025-12-24T21:40:21.809280", "MEAN_MOTION": 1.00267478, "ECCENTRICITY": 0.0002493, "INCLINATION": 0.0601, "RA_OF_ASC_NODE": 98.2899, "ARG_OF_PERICENTER": 150.2235, "MEAN_ANOMALY": 172.9674, "EPHEMERIS_TYPE": 0, "CLASSIFICATION_TYPE": "U", "NORAD_CAT_ID": 53765, "ELEMENT_SET_NO": 999, "REV_AT_EPOCH": 507, "BSTAR": 0, "MEAN_MOTION_DOT": 3.8e-07, "MEAN_MOTION_DDOT": 0}, "tle": {"line1": "1 53765U 22110A   25358.90303020  .00000038  00000+0  00000+0 0  9991", "line2": "2 53765   0.0601  98.2899 0002493 150.2235 172.9674  1.00267478  5079"}}, "geometry": {"type": "Point", "coordinates": [-88.60752735958222, -0.011849927377030368]}}, {"type": "Feature", "properties": {"norad_id": 54048, "name": "EUTELSAT HOTBIRD 13F", "group": "eutelsat", "lat": -0.02510550139998971, "lon": -78.36186604801476, "alt_km": 35784.659623199535, "timestamp": "2025-12-25T11:37:44.093310+00:00", "meta": {"OBJECT_NAME": "EUTELSAT HOTBIRD 13F", "OBJECT_ID": "2022-134A", "EPOCH": "2025-12-24T16:35:06.042624", "MEAN_MOTION": 1.00270762, "ECCENTRICITY": 0.00022006, "INCLINATION": 0.055, "RA_OF_ASC_NODE": 289.1731, "ARG_OF_PERICENTER": 72.2821, "MEAN_ANOMALY": 353.7761, "EPHEMERIS_TYPE": 0, "CLASSIFICATION_TYPE": "U", "NORAD_CAT_ID": 54048, "ELEMENT_SET_NO": 999, "REV_AT_EPOCH": 1162, "BSTAR": 0, "MEAN_MOTION_DOT": 1.08e-06, "MEAN_MOTION_DDOT": 0}, "tle": {"line1": "1 54048U 22134A   25358.69104216  .00000108  00000+0  00000+0 0  9992", "line2": "2 54048   0.0550 289.1731 0002200  72.2821 353.7761  1.00270762 11627"}}, "geometry": {"type": "Point", "coordinates": [-78.36186604801476, -0.02510550139998971]}}, {"type": "Feature", "properties": {"norad_id": 54225, "name": "EUTELSAT HOTBIRD 13G", "group": "eutelsat", "lat": 0.010997087723803055, "lon": -78.3297145774826, "alt_km": 35788.81567522568, "timestamp": "2025-12-25T11:37:44.093322+00:00", "meta": {"OBJECT_NAME": "EUTELSAT HOTBIRD 13G", "OBJECT_ID": "2022-146A", "EPOCH": "2025-12-24T00:28:38.654112", "MEAN_MOTION": 1.00268836, "ECCENTRICITY": 0.00017131, "INCLINATION": 0.0535, "RA_OF_ASC_NODE": 227.8066, "ARG_OF_PERICENTER": 307.349, "MEAN_ANOMALY": 297.8001, "EPHEMERIS_TYPE": 0, "CLASSIFICATION_TYPE": "U", "NORAD_CAT_ID": 54225, "ELEMENT_SET_NO": 999, "REV_AT_EPOCH": 571, "BSTAR": 0, "MEAN_MOTION_DOT": 1.08e-06, "MEAN_MOTION_DDOT": 0}, "tle": {"line1": "1 54225U 22146A   25358.01989183  .00000108  00000+0  00000+0 0  9992", "line2": "2 54225   0.0535 227.8066 0001713 307.3490 297.8001  1.00268836  5716"}}, "geometry": {"type": "Point", "coordinates": [-78.3297145774826, 0.010997087723803055]}}, {"type": "Feature", "properties": {"norad_id": 54259, "name": "EUTELSAT 10B", "group": "eutelsat", "lat": -0.022099644091463286, "lon": -81.29970816604968, "alt_km": 35788.22544555582, "timestamp": "2025-12-25T11:37:44.093334+00:00", "meta": {"OBJECT_NAME": "EUTELSAT 10B", "OBJECT_ID": "2022-157A", "EPOCH": "2025-12-25T01:07:54.431328", "MEAN_MOTION": 1.00270064, "ECCENTRICITY": 6.83e-05, "INCLINATION": 0.06, "RA_OF_ASC_NODE": 95.6031, "ARG_OF_PERICENTER": 57.2113, "MEAN_ANOMALY": 328.0007, "EPHEMERIS_TYPE": 0, "CLASSIFICATION_TYPE": "U", "NORAD_CAT_ID": 54259, "ELEMENT_SET_NO": 999, "REV_AT_EPOCH": 1128, "BSTAR": 0, "MEAN_MOTION_DOT": 8.9e-07, "MEAN_MOTION_DDOT": 0}, "tle": {"line1": "1 54259U 22157A   25359.04715777  .00000089  00000+0  00000+0 0  9999", "line2": "2 54259   0.0600  95.6031 0000683  57.2113 328.0007  1.00270064 11285"}}, "geometry": {"type": "Point", "coordinates": [-81.29970816604968, -0.022099644091463286]}}, {"type": "Feature", "properties": {"norad_id": 59346, "name": "EUTELSAT 36D", "group": "eutelsat", "lat": -0.03779662116795192, "lon": -55.44406796265843, "alt_km": 35782.911812106286, "timestamp": "2025-12-25T11:37:44.093346+00:00", "meta": {"OBJECT_NAME": "EUTELSAT 36D", "OBJECT_ID": "2024-059A", "EPOCH": "2025-12-24T21:49:50.901024", "MEAN_MOTION": 1.00275345, "ECCENTRICITY": 6.34e-05, "INCLINATION": 0.0185, "RA_OF_ASC_NODE": 36.8149, "ARG_OF_PERICENTER": 305.8613, "MEAN_ANOMALY": 114.3448, "EPHEMERIS_TYPE": 0, "CLASSIFICATION_TYPE": "U", "NORAD_CAT_ID": 59346, "ELEMENT_SET_NO": 999, "REV_AT_EPOCH": 640, "BSTAR": 0, "MEAN_MOTION_DOT": 1.77e-06, "MEAN_MOTION_DDOT": 0}, "tle": {"line1": "1 59346U 24059A   25358.90961691  .00000177  00000+0  00000+0 0  9994", "line2": "2 59346   0.0185  36.8149 0000634 305.8613 114.3448  1.00275345  6405"}}, "geometry": {"type": "Point", "coordinates": [-55.44406796265843, -0.03779662116795192]}}]}